{
  "type": "FeatureCollection",
  "features": [
    {
      "type": "Feature",
      "properties": {
        "norad_id": 57400,
        "name": "TIANMU-1 08",
        "group": "weather",
        "lat": 41.003571100740004,
        "lon": -140.19200550083542,
        "alt_km": 475.0736784914934,
        "timestamp": "2025-12-09T16:56:36.222903+00:00",
        "meta_object_name": "TIANMU-1 08",
        "meta_object_id": "2023-101B",
        "meta_epoch": "2025-12-09T11:37:29.175744",
        "meta_mean_motion": 15.27981758,
        "meta_eccentricity": 0.0007553,
        "meta_inclination": 97.2865,
        "meta_ra_of_asc_node": 33.2044,
        "meta_arg_of_pericenter": 92.8742,
        "meta_mean_anomaly": 267.3363,
        "meta_ephemeris_type": 0,
        "meta_classification_type": "U",
        "meta_norad_cat_id": 57400,
        "meta_element_set_no": 999,
        "meta_rev_at_epoch": 13265,
        "meta_bstar": 0.00039833,
        "meta_mean_motion_dot": 0.00010816,
        "meta_mean_motion_ddot": 0,
        "tle_line1": "1 57400U 23101B   25343.48436546  .00010816  00000+0  39833-3 0  9994",
        "tle_line2": "2 57400  97.2865  33.2044 0007553  92.8742 267.3363 15.27981758132653"
      },
      "geometry": {
        "type": "Point",
        "coordinates": [
          -140.19200550083542,
          41.003571100740004
        ]
      }
    },
    {
      "type": "Feature",
      "properties": {
        "norad_id": 57401,
        "name": "TIANMU-1 09",
        "group": "weather",
        "lat": -30.67880036064139,
        "lon": -151.41464515695924,
        "alt_km": 490.107402260287,
        "timestamp": "2025-12-09T16:56:36.222917+00:00",
        "meta_object_name": "TIANMU-1 09",
        "meta_object_id": "2023-101C",
        "meta_epoch": "2025-12-09T11:18:32.492160",
        "meta_mean_motion": 15.28008505,
        "meta_eccentricity": 0.0006817,
        "meta_inclination": 97.2822,
        "meta_ra_of_asc_node": 32.7068,
        "meta_arg_of_pericenter": 92.6391,
        "meta_mean_anomaly": 267.5629,
        "meta_ephemeris_type": 0,
        "meta_classification_type": "U",
        "meta_norad_cat_id": 57401,
        "meta_element_set_no": 999,
        "meta_rev_at_epoch": 13265,
        "meta_bstar": 0.00040024,
        "meta_mean_motion_dot": 0.00010875,
        "meta_mean_motion_ddot": 0,
        "tle_line1": "1 57401U 23101C   25343.47120940  .00010875  00000+0  40024-3 0  9991",
        "tle_line2": "2 57401  97.2822  32.7068 0006817  92.6391 267.5629 15.28008505132655"
      },
      "geometry": {
        "type": "Point",
        "coordinates": [
          -151.41464515695924,
          -30.67880036064139
        ]
      }
    },
    {
      "type": "Feature",
      "properties": {
        "norad_id": 57402,
        "name": "TIANMU-1 10",
        "group": "weather",
        "lat": 22.40244215294344,
        "lon": 30.75768730274208,
        "alt_km": 479.48575056475966,
        "timestamp": "2025-12-09T16:56:36.222927+00:00",
        "meta_object_name": "TIANMU-1 10",
        "meta_object_id": "2023-101D",
        "meta_epoch": "2025-12-09T12:07:47.133696",
        "meta_mean_motion": 15.27999637,
        "meta_eccentricity": 0.0008563,
        "meta_inclination": 97.2902,
        "meta_ra_of_asc_node": 33.5865,
        "meta_arg_of_pericenter": 92.7089,
        "meta_mean_anomaly": 267.5131,
        "meta_ephemeris_type": 0,
        "meta_classification_type": "U",
        "meta_norad_cat_id": 57402,
        "meta_element_set_no": 999,
        "meta_rev_at_epoch": 13265,
        "meta_bstar": 0.00040337,
        "meta_mean_motion_dot": 0.00010962,
        "meta_mean_motion_ddot": 0,
        "tle_line1": "1 57402U 23101D   25343.50540664  .00010962  00000+0  40337-3 0  9999",
        "tle_line2": "2 57402  97.2902  33.5865 0008563  92.7089 267.5131 15.27999637132656"
      },
      "geometry": {
        "type": "Point",
        "coordinates": [
          30.75768730274208,
          22.40244215294344
        ]
      }
    },
    {
      "type": "Feature",
      "properties": {
        "norad_id": 57490,
        "name": "FENGYUN 3F",
        "group": "weather",
        "lat": 21.194286921208274,
        "lon": 48.64095247780276,
        "alt_km": 825.394091871518,
        "timestamp": "2025-12-09T16:56:36.222944+00:00",
        "meta_object_name": "FENGYUN 3F",
        "meta_object_id": "2023-111A",
        "meta_epoch": "2025-12-09T11:46:08.405184",
        "meta_mean_motion": 14.19892391,
        "meta_eccentricity": 6.53e-05,
        "meta_inclination": 98.7088,
        "meta_ra_of_asc_node": 51.8362,
        "meta_arg_of_pericenter": 95.7371,
        "meta_mean_anomaly": 264.388,
        "meta_ephemeris_type": 0,
        "meta_classification_type": "U",
        "meta_norad_cat_id": 57490,
        "meta_element_set_no": 999,
        "meta_rev_at_epoch": 12194,
        "meta_bstar": 0.00010357,
        "meta_mean_motion_dot": 1.76e-06,
        "meta_mean_motion_ddot": 0,
        "tle_line1": "1 57490U 23111A   25343.49037506  .00000176  00000+0  10357-3 0  9996",
        "tle_line2": "2 57490  98.7088  51.8362 0000653  95.7371 264.3880 14.19892391121943"
      },
      "geometry": {
        "type": "Point",
        "coordinates": [
          48.64095247780276,
          21.194286921208274
        ]
      }
    },
    {
      "type": "Feature",
      "properties": {
        "norad_id": 58584,
        "name": "ARKTIKA-M 2",
        "group": "weather",
        "lat": 50.402858806286865,
        "lon": -42.41707466815658,
        "alt_km": 27130.669520656815,
        "timestamp": "2025-12-09T16:56:36.222957+00:00",
        "meta_object_name": "ARKTIKA-M 2",
        "meta_object_id": "2023-198A",
        "meta_epoch": "2025-12-08T20:10:13.977120",
        "meta_mean_motion": 2.0060476,
        "meta_eccentricity": 0.68646991,
        "meta_inclination": 63.2247,
        "meta_ra_of_asc_node": 175.3152,
        "meta_arg_of_pericenter": 268.1185,
        "meta_mean_anomaly": 18.8267,
        "meta_ephemeris_type": 0,
        "meta_classification_type": "U",
        "meta_norad_cat_id": 58584,
        "meta_element_set_no": 999,
        "meta_rev_at_epoch": 1450,
        "meta_bstar": 0,
        "meta_mean_motion_dot": 1.66e-06,
        "meta_mean_motion_ddot": 0,
        "tle_line1": "1 58584U 23198A   25342.84043955  .00000166  00000+0  00000+0 0  9998",
        "tle_line2": "2 58584  63.2247 175.3152 6864699 268.1185  18.8267  2.00604760 14506"
      },
      "geometry": {
        "type": "Point",
        "coordinates": [
          -42.41707466815658,
          50.402858806286865
        ]
      }
    },
    {
      "type": "Feature",
      "properties": {
        "norad_id": 58645,
        "name": "TIANMU-1 11",
        "group": "weather",
        "lat": -58.91016989245238,
        "lon": 171.00307207176698,
        "alt_km": 498.65410145128317,
        "timestamp": "2025-12-09T16:56:36.223508+00:00",
        "meta_object_name": "TIANMU-1 11",
        "meta_object_id": "2023-205A",
        "meta_epoch": "2025-12-09T12:44:39.003072",
        "meta_mean_motion": 15.24538582,
        "meta_eccentricity": 0.0008184,
        "meta_inclination": 97.3608,
        "meta_ra_of_asc_node": 3.2105,
        "meta_arg_of_pericenter": 323.4917,
        "meta_mean_anomaly": 36.5762,
        "meta_ephemeris_type": 0,
        "meta_classification_type": "U",
        "meta_norad_cat_id": 58645,
        "meta_element_set_no": 999,
        "meta_rev_at_epoch": 10860,
        "meta_bstar": 0.00038547,
        "meta_mean_motion_dot": 9.429e-05,
        "meta_mean_motion_ddot": 0,
        "tle_line1": "1 58645U 23205A   25343.53100698  .00009429  00000+0  38547-3 0  9992",
        "tle_line2": "2 58645  97.3608   3.2105 0008184 323.4917  36.5762 15.24538582108601"
      },
      "geometry": {
        "type": "Point",
        "coordinates": [
          171.00307207176698,
          -58.91016989245238
        ]
      }
    },
    {
      "type": "Feature",
      "properties": {
        "norad_id": 58646,
        "name": "TIANMU-1 12",
        "group": "weather",
        "lat": 81.94133497642314,
        "lon": -110.9040614077917,
        "alt_km": 488.61031409432417,
        "timestamp": "2025-12-09T16:56:36.223519+00:00",
        "meta_object_name": "TIANMU-1 12",
        "meta_object_id": "2023-205B",
        "meta_epoch": "2025-12-09T11:48:34.327872",
        "meta_mean_motion": 15.24418065,
        "meta_eccentricity": 0.0006063,
        "meta_inclination": 97.3596,
        "meta_ra_of_asc_node": 2.9788,
        "meta_arg_of_pericenter": 305.9548,
        "meta_mean_anomaly": 54.1127,
        "meta_ephemeris_type": 0,
        "meta_classification_type": "U",
        "meta_norad_cat_id": 58646,
        "meta_element_set_no": 999,
        "meta_rev_at_epoch": 10858,
        "meta_bstar": 0.00038242,
        "meta_mean_motion_dot": 9.316e-05,
        "meta_mean_motion_ddot": 0,
        "tle_line1": "1 58646U 23205B   25343.49206398  .00009316  00000+0  38242-3 0  9999",
        "tle_line2": "2 58646  97.3596   2.9788 0006063 305.9548  54.1127 15.24418065108581"
      },
      "geometry": {
        "type": "Point",
        "coordinates": [
          -110.9040614077917,
          81.94133497642314
        ]
      }
    }
  ]
}